GSAT0101 (PRN E11)      
1 37846U 11060A   21005.91053878 -.00000056  00000-0  00000-0 0  9997
2 37846  56.7499  35.7272 0003381 310.8306  49.1962  1.70475127 57223
GSAT0102 (PRN E12)      
1 37847U 11060B   21008.17913028 -.00000061  00000-0  00000-0 0  9997
2 37847  56.7521  35.6643 0005343 299.4452  59.0368  1.70475261 57268
GSAT0103 (PRN E19)      
1 38857U 12055A   21006.53872846  .00000066  00000-0  00000-0 0  9998
2 38857  55.0146 156.1918 0001649 235.6347 124.3185  1.70473548 51273
GSAT0104 (PRN E20)      
1 38858U 12055B   21007.64630969  .00000059  00000-0  00000-0 0  9992
2 38858  55.0154 156.1609 0000550 196.9597 163.0042  1.70473471 51295
GSAT0201 (PRN E18)      
1 40128U 14050A   21008.22208057 -.00000096  00000-0  00000-0 0  9998
2 40128  50.5290 353.2078 1652735 106.0608 272.7529  1.85519233 41473
GSAT0202 (PRN E14)      
1 40129U 14050B   21007.40705311 -.00000091  00000-0  00000-0 0  9998
2 40129  50.5629 352.2841 1650290 106.8457 271.8947  1.85519869 43629
GSAT0203 (PRN E26)      
1 40544U 15017A   21006.27827596 -.00000058  00000-0  00000-0 0  9990
2 40544  56.5441  35.8228 0005518 257.5012 102.4928  1.70474844 35310
GSAT0204 (PRN E22)      
1 40545U 15017B   21007.23239681 -.00000060  00000-0  00000-0 0  9993
2 40545  56.5507  35.8132 0003500 237.7116 122.3103  1.70475027 35996
GSAT0205 (PRN E24)      
1 40889U 15045A   21008.06100062 -.00000012  00000-0  00000-0 0  9994
2 40889  55.9941 276.4656 0005710   8.2872 351.7739  1.70474473 33154
GSAT0206 (PRN E30)      
1 40890U 15045B   21005.93418862 -.00000008  00000-0  00000-0 0  9994
2 40890  55.9952 276.5208 0003999 357.6084   2.4457  1.70474593 33144
GSAT0209 (PRN E09)      
1 41174U 15079A   21008.45407981  .00000051  00000-0  00000-0 0  9994
2 41174  55.0302 155.8387 0002619 332.6200  27.3275  1.70473436 31099
GSAT0208 (PRN E08)      
1 41175U 15079B   21006.91405568  .00000064  00000-0  00000-0 0  9997
2 41175  55.0275 155.8801 0001897 344.6698  15.2924  1.70473443 31489
GSAT0211 (PRN E02)      
1 41549U 16030A   21008.20861923 -.00000012  00000-0  00000-0 0  9999
2 41549  56.1365 276.3356 0004732 334.6304  25.3983  1.70474244 28814
GSAT0210 (PRN E01)      
1 41550U 16030B   21006.74173615 -.00000010  00000-0  00000-0 0  9990
2 41550  56.1367 276.3777 0003513 311.6503  48.3731  1.70474302 28784
GSAT0207 (PRN E07)      
1 41859U 16069A   21006.40050170  .00000067  00000-0  00000-0 0  9998
2 41859  54.6882 156.2071 0002155 309.8492  50.1007  1.70473359 25674
GSAT0212 (PRN E03)      
1 41860U 16069B   21008.60027036  .00000049  00000-0  00000-0 0  9999
2 41860  54.6862 156.1446 0001985   2.7434 357.2182  1.70473416 25808
GSAT0213 (PRN E04)      
1 41861U 16069C   21007.20622820  .00000062  00000-0  00000-0 0  9992
2 41861  54.6883 156.1875 0001544 258.3285 101.6216  1.70473473 25781
GSAT0214 (PRN E05)      
1 41862U 16069D   21008.52645894  .00000050  00000-0  00000-0 0  9992
2 41862  54.6867 156.1462 0000722 265.6390  94.3138  1.70473479 25799
GSAT0215 (PRN E21)      
1 43055U 17079A   21007.84371160 -.00000011  00000-0  00000-0 0  9994
2 43055  56.1117 276.1863 0002818 313.8827  46.1462  1.70473524 19123
GSAT0216 (PRN E25)      
1 43056U 17079B   21008.13632814 -.00000011  00000-0  00000-0 0  9994
2 43056  56.1114 276.1778 0004384 299.3785  60.6299  1.70473609 19142
GSAT0217 (PRN E27)      
1 43057U 17079C   21006.01008177 -.00000007  00000-0  00000-0 0  9994
2 43057  56.1117 276.2368 0004412 312.0344  47.9842  1.70473527 19093
GSAT0218 (PRN E31)      
1 43058U 17079D   21007.98983625 -.00000011  00000-0  00000-0 0  9997
2 43058  56.1102 276.1797 0004660 293.4431  66.5601  1.70473574 19156
GSAT0221 (PRN E15)      
1 43564U 18060A   21006.71534402 -.00000058  00000-0  00000-0 0  9996
2 43564  56.9303  35.4909 0006149 271.0448  88.9404  1.70475928 15288
GSAT0222 (PRN E33)      
1 43565U 18060B   21008.10835602 -.00000060  00000-0  00000-0 0  9991
2 43565  56.9333  35.4526 0005818 277.1624  82.8277  1.70475916 15358
GSAT0219 (PRN E36)      
1 43566U 18060C   21005.98244661 -.00000056  00000-0  00000-0 0  9999
2 43566  56.9325  35.5123 0005529 272.2214  87.7713  1.70475800 15298
GSAT0220 (PRN E13)      
1 43567U 18060D   21006.78891399 -.00000058  00000-0  00000-0 0  9997
2 43567  56.9333  35.4909 0005636 273.2487  86.7425  1.70475614 15293
